IRIDIUM 106             
1 41917U 17003A   25039.62275758  .00000083  00000+0  22695-4 0  9992
2 41917  86.3965 294.7780 0002496  83.1059 277.0421 14.34218620422467
IRIDIUM 103             
1 41918U 17003B   25039.40076325  .00000433  00000+0  14755-3 0  9994
2 41918  86.3966 294.7717 0002257  99.5786 260.5665 14.34212306422453
IRIDIUM 109             
1 41919U 17003C   25039.61641456  .00000302  00000+0  10063-3 0  9994
2 41919  86.3966 294.7333 0001850  89.3964 270.7444 14.34218480422458
IRIDIUM 102             
1 41920U 17003D   25039.23585748  .00000484  00000+0  16560-3 0  9994
2 41920  86.3964 294.8262 0002114  82.6688 277.4748 14.34219893422486
IRIDIUM 105             
1 41921U 17003E   25039.62520730  .00000081  00000+0  21759-4 0  9998
2 41921  86.3931 263.0781 0002127  89.7698 270.3741 14.34214488424390
IRIDIUM 104             
1 41922U 17003F   25039.24854282  .00000407  00000+0  13812-3 0  9991
2 41922  86.3964 294.8561 0001690  95.3074 264.8315 14.34217798422479
IRIDIUM 114             
1 41923U 17003G   25039.46419071  .00000451  00000+0  15393-3 0  9994
2 41923  86.3964 294.7510 0002127  91.7990 268.3449 14.34219806422486
IRIDIUM 108             
1 41924U 17003H   25039.70178834  .00000476  00000+0  16303-3 0  9990
2 41924  86.3926 262.9555 0002297  83.7789 276.3669 14.34220330424395
